CCSDS_OEM_VERS = 2.0  
CREATION_DATE  = 2026-02-27T09:26:39
ORIGINATOR     = ESOC/OPS-GFA                            
 
 



META_START
OBJECT_NAME          = LISA                                    
OBJECT_ID            = -1000                                   
CENTER_NAME          = SUN                     
REF_FRAME            = EME2000 
TIME_SYSTEM          = TCB
START_TIME           = 2036-12-23T00:00:30.346418            
STOP_TIME            = 2047-09-08T10:42:58.708276            
INTERPOLATION        = HERMITE                                 
INTERPOLATION_DEGREE = 7                                       
META_STOP

2038-01-24T14:02:37.972323    -3.46031689482332468e+07    1.33610280618614167e+08    5.89582901588113382e+07   -2.88615396416856846e+01   -6.29718397327114943e+00   -2.90401039642903935e+00    1.35821865901717254e-06   -5.24508476303332384e-06   -2.31450012049777886e-06
2038-01-25T10:07:40.628869    -3.66863133059527650e+07    1.33141282961094365e+08    5.87422798140576705e+07   -2.87603717797047302e+01   -6.67578383519579344e+00   -3.07106241816892078e+00    1.44019262312603958e-06   -5.22737783957726555e-06   -2.30633105320261297e-06
2038-01-26T06:12:43.285416    -3.87619288759311140e+07    1.32644958673845112e+08    5.85142128979591429e+07   -2.86532866522302996e+01   -7.05306486883586103e+00   -3.23750677325639247e+00    1.52189636991421754e-06   -5.20860449332737281e-06   -2.29769138124113885e-06
2038-01-27T02:17:45.941964    -4.08295885402955487e+07    1.32121405886283040e+08    5.82741345707987770e+07   -2.85403043899437279e+01   -7.42895007947982666e+00   -3.40330948702688918e+00    1.60331349347263517e-06   -5.18876780599983788e-06   -2.28858253495725264e-06
2038-01-27T22:22:48.598511    -4.28888667435056567e+07    1.31570728380739808e+08    5.80220924869165644e+07   -2.84214463087909834e+01   -7.80336270046842539e+00   -3.56843669054651036e+00    1.68442761335118666e-06   -5.16787100015497224e-06   -2.27900600691118816e-06
2038-01-28T18:26:28.529658    -4.49369986078504249e+07    1.30993711806449607e+08    5.77584455225762278e+07   -2.82968809303024393e+01   -8.17580052021878068e+00   -3.73266693078128098e+00    1.76513020191178398e-06   -5.14594366767685497e-06   -2.26897533218795162e-06
2038-01-29T14:30:08.460806    -4.69759242026632726e+07    1.30389855908105627e+08    5.74829644286832288e+07   -2.81664992099083555e+01   -8.54661679908576488e+00   -3.89615601886449880e+00    1.84549796119589656e-06   -5.12296602319333443e-06   -2.25848144386870956e-06
2038-01-30T10:33:48.391954    -4.90052243824122250e+07    1.29759280545862958e+08    5.71957039450179785e+07   -2.80303259123875108e+01   -8.91573582780897844e+00   -4.05887056771865140e+00    1.92551473798996893e-06   -5.09894208552689567e-06   -2.24752618583817477e-06
2038-01-31T06:37:28.323102    -5.10244817909126580e+07    1.29102110999422491e+08    5.68967212012624443e+07   -2.78883869681206562e+01   -9.28308219313902150e+00   -4.22077732598103861e+00    2.00516440816888264e-06   -5.07387603653339415e-06   -2.23611147399079315e-06
2038-02-01T02:41:08.254250    -5.30332809805002362e+07    1.28418477979317173e+08    5.65860757215033472e+07   -2.77407094706008870e+01   -9.64858079024386939e+00   -4.38184318348232260e+00    2.08443088719851554e-06   -5.04777223793864058e-06   -2.22423930363501359e-06
2038-02-01T22:44:48.185397    -5.50312085143217891e+07    1.27708517621421933e+08    5.62638294213838875e+07   -2.75873216732394013e+01   -1.00121568362042979e+01   -4.54203517720390959e+00    2.16329813916752853e-06   -5.02063524476171746e-06   -2.21191175539392233e-06
2038-02-02T18:48:28.116544    -5.70178530553970039e+07    1.26972371468126923e+08    5.59300465994106755e+07   -2.74282529855719552e+01   -1.03737358843557441e+01   -4.70132049760729664e+00    2.24175018435286672e-06   -4.99246981533201271e-06   -2.19913099960538816e-06
2038-02-03T14:52:08.047693    -5.89928054460839182e+07    1.26210186439618006e+08    5.55847939239240587e+07   -2.72635339689719665e+01   -1.07332438392303828e+01   -4.85966649522691796e+00    2.31977110531595505e-06   -4.96328091789340260e-06   -2.18589929921877400e-06
2038-02-04T10:55:47.978840    -6.09556587815808058e+07    1.25422114798707515e+08    5.52281404172400236e+07   -2.70931963319762943e+01   -1.10906069718531732e+01   -5.01704068741800047e+00    2.39734505153405677e-06   -4.93307373380528581e-06   -2.17221901119249604e-06
2038-02-05T06:59:27.909988    -6.29060084810977876e+07    1.24608314112658918e+08    5.48601574384719133e+07   -2.69172729253296765e+01   -1.14457519351455979e+01   -5.17341076515099552e+00    2.47445624255760694e-06   -4.90185365731892098e-06   -2.15809258638303564e-06
2038-02-06T03:03:07.841135    -6.48434523603305370e+07    1.23768947215448782e+08    5.44809186665400416e+07   -2.67357977368538435e+01   -1.17986057791909360e+01   -5.32874459974405656e+00    2.55108896970982306e-06   -4.86962629196722746e-06   -2.14352256794197826e-06
2038-02-06T23:06:47.772283    -6.67675907088694498e+07    1.22904182173909441e+08    5.40905000848775879e+07   -2.65488058862472833e+01   -1.21490959661147588e+01   -5.48301024942516069e+00    2.62722759631003287e-06   -4.83639744352807604e-06   -2.12851158820382591e-06
2038-02-07T19:10:27.703431    -6.86780263761766553e+07    1.22014192261195898e+08    5.36889799693408161e+07   -2.63563336199216423e+01   -1.24971503843344500e+01   -5.63617596561533851e+00    2.70285655643269444e-06   -4.80217310958218027e-06   -2.11306236407349027e-06
2038-02-08T15:14:07.634579    -7.05743648697644770e+07    1.21099155941020235e+08    5.32764388808318824e+07   -2.61584183059808133e+01   -1.28426973619315206e+01   -5.78821019882459176e+00    2.77796035219563082e-06   -4.76695946565237808e-06   -2.09717769090795979e-06
2038-02-09T11:17:47.565726    -7.24562144692070186e+07    1.20159256866097182e+08    5.28529596641424298e+07   -2.59550984294486469e+01   -1.31856656789003956e+01   -5.93908160405198338e+00    2.85252354959445110e-06   -4.73076284797695943e-06   -2.08086043491517939e-06
2038-02-10T07:21:27.496874    -7.43231863596193939e+07    1.19194683894243985e+08    5.24186274545261636e+07   -2.57464135878513360e+01   -1.35259845780276180e+01   -6.08875904558146974e+00    2.92653077283074120e-06   -4.69358973276048298e-06   -2.06411352400109712e-06
2038-02-11T03:27:03.836206    -7.61778667353399992e+07    1.18204017080721259e+08    5.19728035389926434e+07   -2.55320552528842555e+01   -1.38641257182523567e+01   -6.23744988687833324e+00    3.00008480499222098e-06   -4.65538494577466950e-06   -2.04691213070902756e-06
2038-02-11T23:32:40.175537    -7.80168492962035239e+07    1.17188991183704749e+08    5.15162692517390922e+07   -2.53123974740699182e+01   -1.41994682920784765e+01   -6.38488106007515821e+00    3.07305056833049966e-06   -4.61621443228093859e-06   -2.02928597983993000e-06
2038-02-12T19:38:16.514869    -7.98397522795559615e+07    1.16149811173505291e+08    5.10491168261641413e+07   -2.50874833505889860e+01   -1.45319427048555880e+01   -6.53102195811370123e+00    3.14541297749330770e-06   -4.57608547465906420e-06   -2.01123835482639871e-06
2038-02-13T15:43:52.854201    -8.16461970288204700e+07    1.15086687006878957e+08    5.05714406885788217e+07   -2.48573570704811324e+01   -1.48614798944573021e+01   -6.67584221397891664e+00    3.21715701512417663e-06   -4.53500551680984724e-06   -1.99277261029604539e-06
2038-02-14T11:49:29.193532    -8.34358081156925857e+07    1.13999833613551021e+08    5.00833374517455250e+07   -2.46220639051679768e+01   -1.51880113435032236e+01   -6.81931170608510406e+00    3.28826774686924218e-06   -4.49298217843431482e-06   -1.97389217833682780e-06
2038-02-15T07:55:05.532864    -8.52082134411387742e+07    1.12889470869606793e+08    4.95849059026930258e+07   -2.43816502029766689e+01   -1.55114690925002527e+01   -6.96140056406528185e+00    3.35873033404690048e-06   -4.45002326626407869e-06   -1.95460057342097766e-06
2038-02-16T04:00:41.872195    -8.69630443197377026e+07    1.11755823560396060e+08    4.90762469859601110e+07   -2.41361633818313130e+01   -1.58317857536861659e+01   -7.10207917486828855e+00    3.42853004398653092e-06   -4.40613678224843377e-06   -1.93490139598971774e-06
2038-02-17T00:06:18.211527    -8.86999355518842936e+07    1.10599121335605219e+08    4.85574637834234014e+07   -2.38856519212809921e+01   -1.61488945253551712e+01   -7.24131818906669622e+00    3.49765225803165004e-06   -4.36133092869257609e-06   -1.91479833469648762e-06
2038-02-17T20:11:54.550858    -9.04185254883769602e+07    1.09419598659151524e+08    4.80286614918654263e+07   -2.36301653540331458e+01   -1.64627292064450685e+01   -7.37908852727853670e+00    3.56608247721423444e-06   -4.31561411035528751e-06   -1.89429516731224637e-06
2038-02-18T16:17:30.890190    -9.21184560919087827e+07    1.08217494756553352e+08    4.74899473994384855e+07   -2.33697542571611194e+01   -1.67732242111657079e+01   -7.51536138660593789e+00    3.63380632558594755e-06   -4.26899493348731866e-06   -1.87339576028462340e-06
2038-02-19T12:23:07.229522    -9.37993729999824762e+07    1.06993053562431052e+08    4.69414308621803746e+07   -2.31044702431546227e+01   -1.70803145834483736e+01   -7.65010824699365699e+00    3.70080955123159259e-06   -4.22148220184388481e-06   -1.85210406696559718e-06
2038-02-20T08:28:43.568853    -9.54609255937698632e+07    1.05746523670792326e+08    4.63832232817375511e+07   -2.28343659509818835e+01   -1.73839360109957788e+01   -7.78330087741061405e+00    3.76707802493689066e-06   -4.17308490963647168e-06   -1.83042412449246848e-06
2038-02-21T04:34:19.908185    -9.71027670774362385e+07    1.04478158290756524e+08    4.58154380854516923e+07   -2.25594950373322582e+01   -1.76840248387122969e+01   -7.91491134175743305e+00    3.83259773652747261e-06   -4.12381223144181431e-06   -1.80836004932989810e-06
